{"type": "FeatureCollection", "features": [ {"type": "Feature", "properties": {"norad_id": 66625, "name": "STARLINK-35929", "group": "last-30-days", "lat": -34.90932251760222, "lon": 85.799266980387, "alt_km": 451.2841426571358, "timestamp": "2025-12-27T11:23:18.577451+00:00", "meta": {"OBJECT_NAME": "STARLINK-35929", "OBJECT_ID": "2025-271J", "EPOCH": "2025-12-27T00:40:51.714912", "MEAN_MOTION": 15.39649821, "ECCENTRICITY": 9.61e-05, "INCLINATION": 53.1597, "RA_OF_ASC_NODE": 119.4492, "ARG_OF_PERICENTER": 61.9071, "MEAN_ANOMALY": 298.203, "EPHEMERIS_TYPE": 0, "CLASSIFICATION_TYPE": "U", "NORAD_CAT_ID": 66625, "ELEMENT_SET_NO": 999, "REV_AT_EPOCH": 641, "BSTAR": 0.0018997, "MEAN_MOTION_DOT": 0.00076427, "MEAN_MOTION_DDOT": 0}, "tle": {"line1": "1 66625U 25271J   25361.02837633  .00076427  00000+0  18997-2 0  9992", "line2": "2 66625  53.1597 119.4492 0000961  61.9071 298.2030 15.39649821  6410"}}, "geometry": {"type": "Point", "coordinates": [85.799266980387, -34.90932251760222]}}, {"type": "Feature", "properties": {"norad_id": 66626, "name": "STARLINK-35902", "group": "last-30-days", "lat": -42.27284649029404, "lon": -19.53605461464524, "alt_km": 452.38977858412363, "timestamp": "2025-12-27T11:23:18.577461+00:00", "meta": {"OBJECT_NAME": "STARLINK-35902", "OBJECT_ID": "2025-271K", "EPOCH": "2025-12-27T01:00:55.456128", "MEAN_MOTION": 15.39642706, "ECCENTRICITY": 0.0001585, "INCLINATION": 53.1595, "RA_OF_ASC_NODE": 119.5362, "ARG_OF_PERICENTER": 84.6122, "MEAN_ANOMALY": 275.5063, "EPHEMERIS_TYPE": 0, "CLASSIFICATION_TYPE": "U", "NORAD_CAT_ID": 66626, "ELEMENT_SET_NO": 999, "REV_AT_EPOCH": 641, "BSTAR": 0.0019072, "MEAN_MOTION_DOT": 0.00076715, "MEAN_MOTION_DDOT": 0}, "tle": {"line1": "1 66626U 25271K   25361.04230852  .00076715  00000+0  19072-2 0  9990", "line2": "2 66626  53.1595 119.5362 0001585  84.6122 275.5063 15.39642706  6417"}}, "geometry": {"type": "Point", "coordinates": [-19.53605461464524, -42.27284649029404]}}, {"type": "Feature", "properties": {"norad_id": 66627, "name": "STARLINK-35904", "group": "last-30-days", "lat": -49.309245255044445, "lon": 56.71678141137297, "alt_km": 452.50426692868587, "timestamp": "2025-12-27T11:23:18.577473+00:00", "meta": {"OBJECT_NAME": "STARLINK-35904", "OBJECT_ID": "2025-271L", "EPOCH": "2025-12-27T00:47:32.907264", "MEAN_MOTION": 15.3965311, "ECCENTRICITY": 0.0001201, "INCLINATION": 53.1602, "RA_OF_ASC_NODE": 119.4785, "ARG_OF_PERICENTER": 88.2066, "MEAN_ANOMALY": 271.9076, "EPHEMERIS_TYPE": 0, "CLASSIFICATION_TYPE": "U", "NORAD_CAT_ID": 66627, "ELEMENT_SET_NO": 999, "REV_AT_EPOCH": 637, "BSTAR": 0.0011925, "MEAN_MOTION_DOT": 0.00047652, "MEAN_MOTION_DDOT": 0}, "tle": {"line1": "1 66627U 25271L   25361.03301976  .00047652  00000+0  11925-2 0  9993", "line2": "2 66627  53.1602 119.4785 0001201  88.2066 271.9076 15.39653110  6377"}}, "geometry": {"type": "Point", "coordinates": [56.71678141137297, -49.309245255044445]}}, {"type": "Feature", "properties": {"norad_id": 66628, "name": "STARLINK-35862", "group": "last-30-days", "lat": 43.350478966807515, "lon": 162.18910479605125, "alt_km": 440.74932507185076, "timestamp": "2025-12-27T11:23:18.577484+00:00", "meta": {"OBJECT_NAME": "STARLINK-35862", "OBJECT_ID": "2025-271M", "EPOCH": "2025-12-27T00:00:02.998944", "MEAN_MOTION": 15.39598376, "ECCENTRICITY": 0.0001303, "INCLINATION": 53.1601, "RA_OF_ASC_NODE": 119.3739, "ARG_OF_PERICENTER": 86.0407, "MEAN_ANOMALY": 221.7503, "EPHEMERIS_TYPE": 0, "CLASSIFICATION_TYPE": "U", "NORAD_CAT_ID": 66628, "ELEMENT_SET_NO": 999, "REV_AT_EPOCH": 609, "BSTAR": 0.00014711, "MEAN_MOTION_DOT": 5.485e-05, "MEAN_MOTION_DDOT": 0}, "tle": {"line1": "1 66628U 25271M   25361.00003471  .00005485  00000+0  14711-3 0  9995", "line2": "2 66628  53.1601 119.3739 0001303  86.0407 221.7503 15.39598376  6092"}}, "geometry": {"type": "Point", "coordinates": [162.18910479605125, 43.350478966807515]}}, {"type": "Feature", "properties": {"norad_id": 66629, "name": "STARLINK-35956", "group": "last-30-days", "lat": 39.846610327534776, "lon": 155.16750959743717, "alt_km": 382.97197323515866, "timestamp": "2025-12-27T11:23:18.577494+00:00", "meta": {"OBJECT_NAME": "STARLINK-35956", "OBJECT_ID": "2025-271N", "EPOCH": "2025-12-27T03:27:40.672800", "MEAN_MOTION": 15.57330408, "ECCENTRICITY": 0.0010116, "INCLINATION": 53.1713, "RA_OF_ASC_NODE": 118.0531, "ARG_OF_PERICENTER": 28.9829, "MEAN_ANOMALY": 331.1744, "EPHEMERIS_TYPE": 0, "CLASSIFICATION_TYPE": "U", "NORAD_CAT_ID": 66629, "ELEMENT_SET_NO": 999, "REV_AT_EPOCH": 130, "BSTAR": 0.0068265, "MEAN_MOTION_DOT": 0.00544091, "MEAN_MOTION_DDOT": 0}, "tle": {"line1": "1 66629U 25271N   25361.14422075  .00544091  00000+0  68265-2 0  9999", "line2": "2 66629  53.1713 118.0531 0010116  28.9829 331.1744 15.57330408  1300"}}, "geometry": {"type": "Point", "coordinates": [155.16750959743717, 39.846610327534776]}}, {"type": "Feature", "properties": {"norad_id": 66630, "name": "STARLINK-35949", "group": "last-30-days", "lat": 52.583135111054006, "lon": -164.39622913686506, "alt_km": 439.9034792749717, "timestamp": "2025-12-27T11:23:18.577509+00:00", "meta": {"OBJECT_NAME": "STARLINK-35949", "OBJECT_ID": "2025-271P", "EPOCH": "2025-12-27T04:00:01.998720", "MEAN_MOTION": 15.39553, "ECCENTRICITY": 4.46e-05, "INCLINATION": 53.1603, "RA_OF_ASC_NODE": 118.5388, "ARG_OF_PERICENTER": 81.9658, "MEAN_ANOMALY": 93.9882, "EPHEMERIS_TYPE": 0, "CLASSIFICATION_TYPE": "U", "NORAD_CAT_ID": 66630, "ELEMENT_SET_NO": 999, "REV_AT_EPOCH": 607, "BSTAR": 0.0020552, "MEAN_MOTION_DOT": 0.00082521, "MEAN_MOTION_DDOT": 0}, "tle": {"line1": "1 66630U 25271P   25361.16668980  .00082521  00000+0  20552-2 0  9992", "line2": "2 66630  53.1603 118.5388 0000446  81.9658  93.9882 15.39553000  6079"}}, "geometry": {"type": "Point", "coordinates": [-164.39622913686506, 52.583135111054006]}}, {"type": "Feature", "properties": {"norad_id": 66631, "name": "STARLINK-35965", "group": "last-30-days", "lat": 52.836632119393194, "lon": -161.41223444234848, "alt_km": 439.7042734182587, "timestamp": "2025-12-27T11:23:18.577521+00:00", "meta": {"OBJECT_NAME": "STARLINK-35965", "OBJECT_ID": "2025-271Q", "EPOCH": "2025-12-27T04:00:01.998720", "MEAN_MOTION": 15.39554406, "ECCENTRICITY": 6.8e-05, "INCLINATION": 53.1601, "RA_OF_ASC_NODE": 118.5356, "ARG_OF_PERICENTER": 89.3514, "MEAN_ANOMALY": 88.4256, "EPHEMERIS_TYPE": 0, "CLASSIFICATION_TYPE": "U", "NORAD_CAT_ID": 66631, "ELEMENT_SET_NO": 999, "REV_AT_EPOCH": 595, "BSTAR": 0.0020985, "MEAN_MOTION_DOT": 0.00084288, "MEAN_MOTION_DDOT": 0}, "tle": {"line1": "1 66631U 25271Q   25361.16668980  .00084288  00000+0  20985-2 0  9995", "line2": "2 66631  53.1601 118.5356 0000680  89.3514  88.4256 15.39554406  5957"}}, "geometry": {"type": "Point", "coordinates": [-161.41223444234848, 52.836632119393194]}}, {"type": "Feature", "properties": {"norad_id": 66632, "name": "STARLINK-35973", "group": "last-30-days", "lat": -4.699031449150729, "lon": -58.863583230813525, "alt_km": 449.62669114185337, "timestamp": "2025-12-27T11:23:18.577532+00:00", "meta": {"OBJECT_NAME": "STARLINK-35973", "OBJECT_ID": "2025-271R", "EPOCH": "2025-12-26T17:26:55.042944", "MEAN_MOTION": 15.39664523, "ECCENTRICITY": 0.00021729, "INCLINATION": 53.1617, "RA_OF_ASC_NODE": 121.127, "ARG_OF_PERICENTER": 35.2508, "MEAN_ANOMALY": 324.864, "EPHEMERIS_TYPE": 0, "CLASSIFICATION_TYPE": "U", "NORAD_CAT_ID": 66632, "ELEMENT_SET_NO": 999, "REV_AT_EPOCH": 632, "BSTAR": 0.0012860701, "MEAN_MOTION_DOT": 0.00051467, "MEAN_MOTION_DDOT": 0}, "tle": {"line1": "1 66632U 25271R   25360.72702596  .00051467  00000+0  12861-2 0  9996", "line2": "2 66632  53.1617 121.1270 0002172  35.2508 324.8640 15.39664523  6329"}}, "geometry": {"type": "Point", "coordinates": [-58.863583230813525, -4.699031449150729]}}, {"type": "Feature", "properties": {"norad_id": 66633, "name": "STARLINK-35948", "group": "last-30-days", "lat": -6.126058914438827, "lon": -57.78702848585198, "alt_km": 448.9156662557407, "timestamp": "2025-12-27T11:23:18.577543+00:00", "meta": {"OBJECT_NAME": "STARLINK-35948", "OBJECT_ID": "2025-271S", "EPOCH": "2025-12-26T17:26:26.128320", "MEAN_MOTION": 15.39638494, "ECCENTRICITY": 0.00010808, "INCLINATION": 53.1606, "RA_OF_ASC_NODE": 121.1227, "ARG_OF_PERICENTER": 69.9057, "MEAN_ANOMALY": 290.2065, "EPHEMERIS_TYPE": 0, "CLASSIFICATION_TYPE": "U", "NORAD_CAT_ID": 66633, "ELEMENT_SET_NO": 999, "REV_AT_EPOCH": 636, "BSTAR": 0.0013683003, "MEAN_MOTION_DOT": 0.00054759, "MEAN_MOTION_DDOT": 0}, "tle": {"line1": "1 66633U 25271S   25360.72669130  .00054759  00000+0  13683-2 0  9993", "line2": "2 66633  53.1606 121.1227 0001080  69.9057 290.2065 15.39638494  6369"}}, "geometry": {"type": "Point", "coordinates": [-57.78702848585198, -6.126058914438827]}}, {"type": "Feature", "properties": {"norad_id": 66634, "name": "STARLINK-35967", "group": "last-30-days", "lat": -26.284588140983857, "lon": -40.72565334595689, "alt_km": 450.8076603235477, "timestamp": "2025-12-27T11:23:18.577553+00:00", "meta": {"OBJECT_NAME": "STARLINK-35967", "OBJECT_ID": "2025-271T", "EPOCH": "2025-12-26T14:12:47.342304", "MEAN_MOTION": 15.39676406, "ECCENTRICITY": 0.0001064, "INCLINATION": 53.1614, "RA_OF_ASC_NODE": 121.7016, "ARG_OF_PERICENTER": 81.6663, "MEAN_ANOMALY": 278.4463, "EPHEMERIS_TYPE": 0, "CLASSIFICATION_TYPE": "U", "NORAD_CAT_ID": 66634, "ELEMENT_SET_NO": 999, "REV_AT_EPOCH": 630, "BSTAR": 0.0014187, "MEAN_MOTION_DOT": 0.00056878, "MEAN_MOTION_DDOT": 0}, "tle": {"line1": "1 66634U 25271T   25360.59221461  .00056878  00000+0  14187-2 0  9994", "line2": "2 66634  53.1614 121.7016 0001064  81.6663 278.4463 15.39676406  6306"}}, "geometry": {"type": "Point", "coordinates": [-40.72565334595689, -26.284588140983857]}}]}